[{"OBJECT_NAME":"BEIDOU-3 M17 (C36)","OBJECT_ID":"2018-093A","EPOCH":"2026-03-27T04:51:37.860192","MEAN_MOTION":1.8622828,"ECCENTRICITY":0.0007874,"INCLINATION":54.1688,"RA_OF_ASC_NODE":185.0778,"ARG_OF_PERICENTER":293.7414,"MEAN_ANOMALY":97.3651,"EPHEMERIS_TYPE":0,"CLASSIFICATION_TYPE":"U","NORAD_CAT_ID":43706,"ELEMENT_SET_NO":999,"REV_AT_EPOCH":5001,"BSTAR":0,"MEAN_MOTION_DOT":-3.7e-7,"MEAN_MOTION_DDOT":0},{"OBJECT_NAME":"BEIDOU-3 M18 (C37)","OBJECT_ID":"2018-093B","EPOCH":"2026-03-26T11:33:32.951232","MEAN_MOTION":1.86226396,"ECCENTRICITY":0.0006336,"INCLINATION":54.17,"RA_OF_ASC_NODE":185.0943,"ARG_OF_PERICENTER":332.676,"MEAN_ANOMALY":27.2992,"EPHEMERIS_TYPE":0,"CLASSIFICATION_TYPE":"U","NORAD_CAT_ID":43707,"ELEMENT_SET_NO":999,"REV_AT_EPOCH":4999,"BSTAR":0,"MEAN_MOTION_DOT":-3.0e-7,"MEAN_MOTION_DDOT":0},{"OBJECT_NAME":"BEIDOU-3 IGSO-1 (C38)","OBJECT_ID":"2019-023A","EPOCH":"2026-03-26T15:46:11.305056","MEAN_MOTION":1.00263805,"ECCENTRICITY":0.00251832,"INCLINATION":58.586,"RA_OF_ASC_NODE":38.4984,"ARG_OF_PERICENTER":236.7446,"MEAN_ANOMALY":263.8673,"EPHEMERIS_TYPE":0,"CLASSIFICATION_TYPE":"U","NORAD_CAT_ID":44204,"ELEMENT_SET_NO":999,"REV_AT_EPOCH":638,"BSTAR":0,"MEAN_MOTION_DOT":-2.12e-6,"MEAN_MOTION_DDOT":0},{"OBJECT_NAME":"BEIDOU-2 G8 (C01)","OBJECT_ID":"2019-027A","EPOCH":"2026-03-28T22:19:05.132064","MEAN_MOTION":1.00268267,"ECCENTRICITY":0.00114155,"INCLINATION":1.455,"RA_OF_ASC_NODE":74.2784,"ARG_OF_PERICENTER":275.501,"MEAN_ANOMALY":315.7753,"EPHEMERIS_TYPE":0,"CLASSIFICATION_TYPE":"U","NORAD_CAT_ID":44231,"ELEMENT_SET_NO":999,"REV_AT_EPOCH":2527,"BSTAR":0,"MEAN_MOTION_DOT":-2.67e-6,"MEAN_MOTION_DDOT":0},{"OBJECT_NAME":"BEIDOU-3 M24 (C46)","OBJECT_ID":"2019-061A","EPOCH":"2026-03-26T13:13:55.330176","MEAN_MOTION":1.86228792,"ECCENTRICITY":0.0008194,"INCLINATION":54.397,"RA_OF_ASC_NODE":185.5149,"ARG_OF_PERICENTER":15.0686,"MEAN_ANOMALY":344.9633,"EPHEMERIS_TYPE":0,"CLASSIFICATION_TYPE":"U","NORAD_CAT_ID":44542,"ELEMENT_SET_NO":999,"REV_AT_EPOCH":4425,"BSTAR":0,"MEAN_MOTION_DOT":-3.0e-7,"MEAN_MOTION_DDOT":0},{"OBJECT_NAME":"BEIDOU-3 M23 (C45)","OBJECT_ID":"2019-061B","EPOCH":"2026-03-27T04:42:14.012928","MEAN_MOTION":1.86227116,"ECCENTRICITY":0.0004848,"INCLINATION":54.395,"RA_OF_ASC_NODE":185.4615,"ARG_OF_PERICENTER":1.0858,"MEAN_ANOMALY":343.2659,"EPHEMERIS_TYPE":0,"CLASSIFICATION_TYPE":"U","NORAD_CAT_ID":44543,"ELEMENT_SET_NO":999,"REV_AT_EPOCH":4426,"BSTAR":0,"MEAN_MOTION_DOT":-3.7e-7,"MEAN_MOTION_DDOT":0},{"OBJECT_NAME":"BEIDOU-3 IGSO-3 (C40)","OBJECT_ID":"2019-073A","EPOCH":"2026-03-27T22:31:01.388928","MEAN_MOTION":1.00261892,"ECCENTRICITY":0.00410078,"INCLINATION":54.9409,"RA_OF_ASC_NODE":281.7733,"ARG_OF_PERICENTER":188.7198,"MEAN_ANOMALY":171.1984,"EPHEMERIS_TYPE":0,"CLASSIFICATION_TYPE":"U","NORAD_CAT_ID":44709,"ELEMENT_SET_NO":999,"REV_AT_EPOCH":2364,"BSTAR":0,"MEAN_MOTION_DOT":-1.59e-6,"MEAN_MOTION_DDOT":0},{"OBJECT_NAME":"BEIDOU-3 M22 (C44)","OBJECT_ID":"2019-078A","EPOCH":"2026-03-27T11:08:27.250656","MEAN_MOTION":1.86231892,"ECCENTRICITY":0.00074546,"INCLINATION":54.0095,"RA_OF_ASC_NODE":302.7034,"ARG_OF_PERICENTER":41.3303,"MEAN_ANOMALY":318.7622,"EPHEMERIS_TYPE":0,"CLASSIFICATION_TYPE":"U","NORAD_CAT_ID":44793,"ELEMENT_SET_NO":999,"REV_AT_EPOCH":4312,"BSTAR":0,"MEAN_MOTION_DOT":-3.1e-7,"MEAN_MOTION_DDOT":0},{"OBJECT_NAME":"BEIDOU-3 M21 (C43)","OBJECT_ID":"2019-078B","EPOCH":"2026-03-26T12:43:42.292704","MEAN_MOTION":1.86227568,"ECCENTRICITY":0.00053802,"INCLINATION":53.9841,"RA_OF_ASC_NODE":302.6991,"ARG_OF_PERICENTER":37.5776,"MEAN_ANOMALY":322.4952,"EPHEMERIS_TYPE":0,"CLASSIFICATION_TYPE":"U","NORAD_CAT_ID":44794,"ELEMENT_SET_NO":999,"REV_AT_EPOCH":4311,"BSTAR":0,"MEAN_MOTION_DOT":-2.9e-7,"MEAN_MOTION_DDOT":0},{"OBJECT_NAME":"BEIDOU-3 M19 (C41)","OBJECT_ID":"2019-090A","EPOCH":"2026-03-28T15:41:00.138912","MEAN_MOTION":1.86231189,"ECCENTRICITY":0.00203632,"INCLINATION":56.4908,"RA_OF_ASC_NODE":65.4505,"ARG_OF_PERICENTER":293.6581,"MEAN_ANOMALY":246.5173,"EPHEMERIS_TYPE":0,"CLASSIFICATION_TYPE":"U","NORAD_CAT_ID":44864,"ELEMENT_SET_NO":999,"REV_AT_EPOCH":4273,"BSTAR":0,"MEAN_MOTION_DOT":-4.0e-8,"MEAN_MOTION_DDOT":0},{"OBJECT_NAME":"BEIDOU-3 M20 (C42)","OBJECT_ID":"2019-090B","EPOCH":"2026-03-28T12:29:18.520800","MEAN_MOTION":1.86231097,"ECCENTRICITY":0.00179139,"INCLINATION":56.4922,"RA_OF_ASC_NODE":65.4894,"ARG_OF_PERICENTER":305.5253,"MEAN_ANOMALY":235.0059,"EPHEMERIS_TYPE":0,"CLASSIFICATION_TYPE":"U","NORAD_CAT_ID":44865,"ELEMENT_SET_NO":999,"REV_AT_EPOCH":4271,"BSTAR":0,"MEAN_MOTION_DOT":-3.0e-8,"MEAN_MOTION_DDOT":0},{"OBJECT_NAME":"BEIDOU-3 G2 (C60)","OBJECT_ID":"2020-017A","EPOCH":"2026-03-28T22:00:39.023712","MEAN_MOTION":1.00271976,"ECCENTRICITY":0.00025567,"INCLINATION":2.7041,"RA_OF_ASC_NODE":46.0121,"ARG_OF_PERICENTER":322.4928,"MEAN_ANOMALY":228.0139,"EPHEMERIS_TYPE":0,"CLASSIFICATION_TYPE":"U","NORAD_CAT_ID":45344,"ELEMENT_SET_NO":999,"REV_AT_EPOCH":2245,"BSTAR":0,"MEAN_MOTION_DOT":-1.57e-6,"MEAN_MOTION_DDOT":0},{"OBJECT_NAME":"BEIDOU-3 G3 (C61)","OBJECT_ID":"2020-040A","EPOCH":"2026-03-28T22:09:23.185728","MEAN_MOTION":1.00272788,"ECCENTRICITY":0.0004132,"INCLINATION":2.2506,"RA_OF_ASC_NODE":67.1894,"ARG_OF_PERICENTER":321.0263,"MEAN_ANOMALY":241.0214,"EPHEMERIS_TYPE":0,"CLASSIFICATION_TYPE":"U","NORAD_CAT_ID":45807,"ELEMENT_SET_NO":999,"REV_AT_EPOCH":2126,"BSTAR":0,"MEAN_MOTION_DOT":-3.71e-6,"MEAN_MOTION_DDOT":0},{"OBJECT_NAME":"BEIDOU-3 G4 (C62)","OBJECT_ID":"2023-066A","EPOCH":"2026-03-13T04:10:32.176992","MEAN_MOTION":1.00272296,"ECCENTRICITY":0.00026474,"INCLINATION":0.6336,"RA_OF_ASC_NODE":312.1088,"ARG_OF_PERICENTER":153.4351,"MEAN_ANOMALY":287.9442,"EPHEMERIS_TYPE":0,"CLASSIFICATION_TYPE":"U","NORAD_CAT_ID":56564,"ELEMENT_SET_NO":999,"REV_AT_EPOCH":1043,"BSTAR":0,"MEAN_MOTION_DOT":-1.11e-6,"MEAN_MOTION_DDOT":0},{"OBJECT_NAME":"BEIDOU-3 M28 (C50)","OBJECT_ID":"2023-207A","EPOCH":"2026-03-28T05:14:45.000960","MEAN_MOTION":1.8622965,"ECCENTRICITY":0.00049821,"INCLINATION":55.6833,"RA_OF_ASC_NODE":65.0329,"ARG_OF_PERICENTER":311.8055,"MEAN_ANOMALY":48.1461,"EPHEMERIS_TYPE":0,"CLASSIFICATION_TYPE":"U","NORAD_CAT_ID":58654,"ELEMENT_SET_NO":999,"REV_AT_EPOCH":1533,"BSTAR":0,"MEAN_MOTION_DOT":-5.0e-8,"MEAN_MOTION_DDOT":0},{"OBJECT_NAME":"BEIDOU-3 M26 (C48)","OBJECT_ID":"2023-207B","EPOCH":"2026-03-28T13:16:20.957376","MEAN_MOTION":1.86229581,"ECCENTRICITY":0.0005599,"INCLINATION":55.6855,"RA_OF_ASC_NODE":65.0079,"ARG_OF_PERICENTER":296.0064,"MEAN_ANOMALY":63.9292,"EPHEMERIS_TYPE":0,"CLASSIFICATION_TYPE":"U","NORAD_CAT_ID":58655,"ELEMENT_SET_NO":999,"REV_AT_EPOCH":1532,"BSTAR":0,"MEAN_MOTION_DOT":-6.0e-8,"MEAN_MOTION_DDOT":0},{"OBJECT_NAME":"BEIDOU-3 M25 (C47)","OBJECT_ID":"2024-168B","EPOCH":"2026-03-27T00:48:46.058688","MEAN_MOTION":1.86229867,"ECCENTRICITY":0.00037935,"INCLINATION":54.5461,"RA_OF_ASC_NODE":305.0968,"ARG_OF_PERICENTER":320.5769,"MEAN_ANOMALY":217.9271,"EPHEMERIS_TYPE":0,"CLASSIFICATION_TYPE":"U","NORAD_CAT_ID":61186,"ELEMENT_SET_NO":999,"REV_AT_EPOCH":1025,"BSTAR":0,"MEAN_MOTION_DOT":-3.3e-7,"MEAN_MOTION_DDOT":0}]
